{
  "type": "FeatureCollection",
  "features": [
    {
      "type": "Feature",
      "properties": {
        "name": "San Roque"
      },
      "geometry": {
        "type": "Polygon",
        "coordinates": [
          [
            [
              -74.7767194,
              10.9744954
            ],
            [
              -74.7761332,
              10.9757019
            ],
            [
              -74.7817356,
              10.9780639
            ],
            [
              -74.782287,
              10.9782549
            ],
            [
              -74.7830586,
              10.9756296
            ],
            [
              -74.785071,
              10.9701971
            ],
            [
              -74.7862111,
              10.9680029
            ],
            [
              -74.7822532,
              10.966057
            ],
            [
              -74.7820122,
              10.9666092
            ],
            [
              -74.7786863,
              10.9654182
            ],
            [
              -74.7777285,
              10.9697148
            ],
            [
              -74.7766084,
              10.9695515
            ],
            [
              -74.7765143,
              10.970515
            ],
            [
              -74.7763797,
              10.9737045
            ],
            [
              -74.7765135,
              10.9744268
            ],
            [
              -74.7767194,
              10.9744954
            ]
          ]
        ]
      }
    },
    {
      "type": "Feature",
      "properties": {
        "name": "Rebolo"
      },
      "geometry": {
        "type": "Polygon",
        "coordinates": [
          [
            [
              -74.7694065,
              10.964693
            ],
            [
              -74.7694985,
              10.965097
            ],
            [
              -74.7704744,
              10.9670579
            ],
            [
              -74.7705199,
              10.9672838
            ],
            [
              -74.7704968,
              10.9679506
            ],
            [
              -74.7705373,
              10.9682311
            ],
            [
              -74.7704412,
              10.9689647
            ],
            [
              -74.7704362,
              10.9693047
            ],
            [
              -74.7702036,
              10.9700047
            ],
            [
              -74.7700946,
              10.9706617
            ],
            [
              -74.7700946,
              10.972271
            ],
            [
              -74.7700415,
              10.9725192
            ],
            [
              -74.7699682,
              10.9726334
            ],
            [
              -74.7701022,
              10.9742765
            ],
            [
              -74.7705749,
              10.9743807
            ],
            [
              -74.7745102,
              10.9751392
            ],
            [
              -74.7761308,
              10.9757001
            ],
            [
              -74.7767173,
              10.9744967
            ],
            [
              -74.7765123,
              10.9744264
            ],
            [
              -74.7763798,
              10.973704
            ],
            [
              -74.7765148,
              10.9705126
            ],
            [
              -74.7766094,
              10.9695459
            ],
            [
              -74.7769398,
              10.9695967
            ],
            [
              -74.7777295,
              10.9697153
            ],
            [
              -74.7786857,
              10.965418
            ],
            [
              -74.77995,
              10.9597878
            ],
            [
              -74.7787236,
              10.9591292
            ],
            [
              -74.7774545,
              10.9586582
            ],
            [
              -74.7767742,
              10.9584812
            ],
            [
              -74.7759881,
              10.9582184
            ],
            [
              -74.7746728,
              10.9579171
            ],
            [
              -74.7745872,
              10.9579269
            ],
            [
              -74.7747096,
              10.9585281
            ],
            [
              -74.7748357,
              10.9595564
            ],
            [
              -74.7749266,
              10.9602843
            ],
            [
              -74.7750138,
              10.9609771
            ],
            [
              -74.7750964,
              10.9616825
            ],
            [
              -74.7751941,
              10.9624459
            ],
            [
              -74.7752487,
              10.9630674
            ],
            [
              -74.7753857,
              10.964808
            ],
            [
              -74.7752565,
              10.9648528
            ],
            [
              -74.774866,
              10.9650622
            ],
            [
              -74.7746836,
              10.965163
            ],
            [
              -74.7744973,
              10.9651853
            ],
            [
              -74.7741135,
              10.9650771
            ],
            [
              -74.7737636,
              10.9649097
            ],
            [
              -74.7722067,
              10.9645022
            ],
            [
              -74.7706263,
              10.9644752
            ],
            [
              -74.7700144,
              10.964561
            ],
            [
              -74.7694065,
              10.964693
            ]
          ]
        ]
      }
    },
    {
      "type": "Feature",
      "properties": {
        "name": "Centro Histórico"
      },
      "geometry": {
        "type": "Polygon",
        "coordinates": [
          [
            [
              -74.7773785,
              10.9762735
            ],
            [
              -74.7817491,
              10.9781034
            ],
            [
              -74.7842663,
              10.9789476
            ],
            [
              -74.7869785,
              10.9797903
            ],
            [
              -74.7861,
              10.9829242
            ],
            [
              -74.7847791,
              10.9873313
            ],
            [
              -74.7810215,
              10.986317
            ],
            [
              -74.7803443,
              10.9861988
            ],
            [
              -74.7793758,
              10.9861032
            ],
            [
              -74.7769667,
              10.9857222
            ],
            [
              -74.7762497,
              10.9855343
            ],
            [
              -74.7760069,
              10.9853941
            ],
            [
              -74.7761078,
              10.9845937
            ],
            [
              -74.7759964,
              10.9839179
            ],
            [
              -74.7756651,
              10.9827541
            ],
            [
              -74.7754842,
              10.9820982
            ],
            [
              -74.775411,
              10.980794
            ],
            [
              -74.7759239,
              10.9787121
            ],
            [
              -74.7768274,
              10.9772411
            ],
            [
              -74.7773785,
              10.9762735
            ]
          ]
        ]
      }
    },
    {
      "type": "Feature",
      "properties": {
        "name": "Barrio Abajo"
      },
      "geometry": {
        "type": "Polygon",
        "coordinates": [
          [
            [
              -74.7760104,
              10.9854002
            ],
            [
              -74.7760331,
              10.9856347
            ],
            [
              -74.7764976,
              10.9861514
            ],
            [
              -74.7769613,
              10.9870162
            ],
            [
              -74.7771708,
              10.9873591
            ],
            [
              -74.7771594,
              10.9877053
            ],
            [
              -74.7773162,
              10.9878951
            ],
            [
              -74.7774904,
              10.9879601
            ],
            [
              -74.7778039,
              10.9883671
            ],
            [
              -74.7781066,
              10.9887051
            ],
            [
              -74.7784176,
              10.9889942
            ],
            [
              -74.7792478,
              10.9898136
            ],
            [
              -74.7796208,
              10.9904419
            ],
            [
              -74.7797865,
              10.991143
            ],
            [
              -74.7799093,
              10.9923236
            ],
            [
              -74.7800278,
              10.9926917
            ],
            [
              -74.7803913,
              10.9933463
            ],
            [
              -74.7810671,
              10.9944519
            ],
            [
              -74.7816986,
              10.9954313
            ],
            [
              -74.7829925,
              10.994853
            ],
            [
              -74.7839562,
              10.9943751
            ],
            [
              -74.7851955,
              10.9938447
            ],
            [
              -74.7871679,
              10.9931787
            ],
            [
              -74.7892765,
              10.9926707
            ],
            [
              -74.78922,
              10.9922888
            ],
            [
              -74.7891829,
              10.9915637
            ],
            [
              -74.7891644,
              10.9906921
            ],
            [
              -74.7893185,
              10.9897616
            ],
            [
              -74.7894797,
              10.988744
            ],
            [
              -74.7876601,
              10.9881712
            ],
            [
              -74.7862167,
              10.9877676
            ],
            [
              -74.7847662,
              10.9873543
            ],
            [
              -74.7810076,
              10.9863295
            ],
            [
              -74.7803264,
              10.9862228
            ],
            [
              -74.7796207,
              10.986156
            ],
            [
              -74.7788864,
              10.9860512
            ],
            [
              -74.7776698,
              10.9858522
            ],
            [
              -74.7769502,
              10.98574
            ],
            [
              -74.776222,
              10.9855363
            ],
            [
              -74.7760104,
              10.9854002
            ]
          ]
        ]
      }
    },
    {
      "type": "Feature",
      "properties": {
        "name": "El Prado"
      },
      "geometry": {
        "type": "Polygon",
        "coordinates": [
          [
            [
              -74.7915588,
              10.9928755
            ],
            [
              -74.7913095,
              10.9969959
            ],
            [
              -74.792527,
              10.997053
            ],
            [
              -74.7929063,
              10.9971551
            ],
            [
              -74.7930164,
              10.9972302
            ],
            [
              -74.7990366,
              11.0053101
            ],
            [
              -74.8022175,
              11.0030283
            ],
            [
              -74.8039226,
              11.0018134
            ],
            [
              -74.8070768,
              10.9995538
            ],
            [
              -74.807395,
              10.9989743
            ],
            [
              -74.8055542,
              10.9981943
            ],
            [
              -74.8050494,
              10.9988249
            ],
            [
              -74.8041204,
              10.9976081
            ],
            [
              -74.8024704,
              10.9963285
            ],
            [
              -74.8019027,
              10.9960543
            ],
            [
              -74.8007923,
              10.9956099
            ],
            [
              -74.7997614,
              10.9951234
            ],
            [
              -74.798807,
              10.9945709
            ],
            [
              -74.7969357,
              10.9936898
            ],
            [
              -74.7956223,
              10.9930464
            ],
            [
              -74.7948117,
              10.9924879
            ],
            [
              -74.7940714,
              10.9919173
            ],
            [
              -74.7930812,
              10.9913562
            ],
            [
              -74.7920656,
              10.9909928
            ],
            [
              -74.7912611,
              10.9907706
            ],
            [
              -74.7899396,
              10.9907346
            ],
            [
              -74.7891682,
              10.9907852
            ],
            [
              -74.7892232,
              10.992283
            ],
            [
              -74.7892797,
              10.9926694
            ],
            [
              -74.7914744,
              10.9927905
            ],
            [
              -74.7915623,
              10.9928225
            ],
            [
              -74.7915588,
              10.9928755
            ]
          ]
        ]
      }
    }
  ]
}